{
  "norad_id": 42950,
  "name": "INTELSAT 37E (IS-37E)",
  "history": [
    {
      "epoch": "2026-03-28T20:04:38.593056",
      "apogee_km": 35796.01249786352,
      "perigee_km": 35778.83593484642,
      "latitude_deg": -0.009283715009405486,
      "longitude_deg": -4.690452160080895,
      "semi_major_axis_km": 42165.561216354974,
      "eccentricity": 0.00020368,
      "inclination_deg": 0.0239,
      "raan_deg": 175.4387,
      "arg_perigee_deg": 201.1994,
      "mean_anomaly_deg": 92.7782,
      "mean_motion_rev_day": 1.00268827
    },
    {
      "epoch": "2026-03-29T04:23:22.015680",
      "apogee_km": 35796.06138485086,
      "perigee_km": 35778.80723307124,
      "latitude_deg": -0.021814701964912475,
      "longitude_deg": 28.55779520003125,
      "semi_major_axis_km": 42165.57130896105,
      "eccentricity": 0.0002046,
      "inclination_deg": 0.024,
      "raan_deg": 174.689,
      "arg_perigee_deg": 203.0189,
      "mean_anomaly_deg": 216.7299,
      "mean_motion_rev_day": 1.00268791
    }
  ]
}